LEDSAT                  
1 49069U 21073D   24210.18084443  .00014835  00000+0  56858-3 0  9997
2 49069  97.4350 281.0767 0019770 137.8669 222.4094 15.26433019162706
XW-3 (CAS-9)            
1 50466U 21131B   24210.47755756  .00000952  00000+0  31790-3 0  9992
2 50466  98.5280 295.3561 0004258  20.2164 339.9192 14.39753174135942
TEVEL-3                 
1 50988U 22002E   24210.48331094  .01051747  56849-3  19106-2 0  9996
2 50988  97.3572 289.2224 0011302 251.0687 108.9367 16.01476044141575
TEVEL-8                 
1 50989U 22002F   24210.47286133  .00574726  14895-3  11055-2 0  9995
2 50989  97.3635 289.2922 0012167 252.7442 107.2505 16.00353281141569
TEVEL-1                 
1 51013U 22002AF  24210.46700386  .00936792  42659-3  18507-2 0  9997
2 51013  97.3633 289.0153 0011749 251.0016 108.9989 15.99962541141560
TEVEL-7                 
1 51062U 22002CG  24210.50722672  .01029712  54587-3  18219-2 0  9997
2 51062  97.3616 289.3316 0011438 253.6897 106.3125 16.01921654141578
TEVEL-4                 
1 51063U 22002CH  24209.46387971  .00762520  25592-3  18576-2 0  9990
2 51063  97.3666 287.9783 0010748 247.6676 112.3462 15.96157881141394
TEVEL-2                 
1 51069U 22002CP  24210.41680550  .00981908  48575-3  17881-2 0  9999
2 51069  97.3579 289.1194 0011345 251.6119 108.3927 16.01410751141569
GREENCUBE               
1 53106U 22080B   24206.16680960 -.00000003  00000+0  00000+0 0  9999
2 53106  70.1349 179.6741 0007614  98.9379 261.2142  6.42557625 47640
KAI-1 (RS26S)           
1 53378U 22096J   24208.95767653  .00352163  00000+0  12807-2 0  9998
2 53378  97.3890 130.6385 0008633 131.1998 229.0019 15.87590621110506
CAS-5A (FO-118)         
1 54684U 22167C   24210.56003041  .00028772  00000+0  90542-3 0  9991
2 54684  97.6091 356.4558 0009087   0.2431 359.8814 15.32867374 90633
STRATOSAT-TK 1 (RS52S)  
1 57167U 23091B   24210.48619862  .00014759  00000+0  81710-3 0  9999
2 57167  97.6087 263.4777 0013530 341.7972  18.2773 15.13858627 59802
UMKA 1 (RS40S)          
1 57172U 23091G   24210.54208263  .00005848  00000+0  38147-3 0  9996
2 57172  97.6094 262.1788 0015788 346.2173  13.8622 15.08162849 59727
CUBESX-HSE 3 (RS42S)    
1 57178U 23091N   24210.52371645  .00007550  00000+0  47021-3 0  9998
2 57178  97.6126 262.6985 0015880 338.9800  21.0774 15.09761544 59740
MONITOR-4 (RS57S)       
1 57182U 23091S   24210.52498327  .00006861  00000+0  43396-3 0  9995
2 57182  97.6114 262.4830 0016311 340.4713  19.5889 15.09227161 59730
MONITOR-2 (RS39S)       
1 57184U 23091U   24210.50404968  .00005749  00000+0  37517-3 0  9995
2 57184  97.6116 262.5378 0013137 334.8654  25.1933 15.08183061 59738
SVYATOBOR 1 (RS60S)     
1 57187U 23091X   24210.48217005  .00007087  00000+0  44033-3 0  9997
2 57187  97.6126 263.0341 0012272 332.2815  27.7759 15.09913216 59769
VIZARD-METEO (RS38S)    
1 57189U 23091Z   24210.46391741  .00008181  00000+0  48651-3 0  9993
2 57189  97.6115 263.4806 0010960 329.4577  30.6013 15.11473914 59792
NANOZOND 1 (RS49S)      
1 57190U 23091AA  24210.52410566  .00012285  00000+0  67162-3 0  9997
2 57190  97.6087 264.1893 0009231 332.8726  27.2022 15.14396927 59859
POLYTECH-UNIVERSE 3 (R*)
1 57191U 23091AB  24210.51007163  .00005155  00000+0  33657-3 0  9992
2 57191  97.6082 262.2074 0018801 351.1540   8.9354 15.08140423 59727
UTMN 2 (RS27S)          
1 57203U 23091AP  24210.46894691  .00007760  00000+0  46874-3 0  9999
2 57203  97.6116 263.3173 0011361 330.0701  29.9877 15.10920271 59789
ARCCUBE 1 (RS25S)       
1 57205U 23091AR  24210.46885097  .00014841  00000+0  78042-3 0  9991
2 57205  97.6057 264.3013 0009209 334.1191  25.9579 15.15730284 59867
KUZGTU 1 (RS47S)        
1 57217U 23091AV  24210.53649725  .00007677  00000+0  48025-3 0  9995
2 57217  97.6104 262.5540 0015824 340.8557  19.2075 15.09597760 59745
HADES-D (SO-121)        
1 58567U 23174CY  24210.20369862  .00044900  00000+0  13223-2 0  9992
2 58567  97.4514 286.1927 0010199  92.1634 268.0777 15.34861844 40064
